GLOBALSTAR M068         
1 32266U 07048D   24275.66727689 -.00000040  00000+0  35273-3 0  9996
2 32266  51.9916  10.2994 0000331 280.6244 226.8822 12.62801497784896
GLOBALSTAR M079         
1 37188U 10054A   24275.87442156 -.00000091  00000+0  72367-4 0  9993
2 37188  52.0029 206.1325 0000873  70.4651 330.5791 12.62264776643832
GLOBALSTAR M074         
1 37189U 10054B   24275.53304830 -.00000098  00000+0  32709-4 0  9996
2 37189  52.0008 206.5294 0000580  79.8826  92.2693 12.62270119644394
GLOBALSTAR M076         
1 37190U 10054C   24275.84743956 -.00000095  00000+0  47073-4 0  9995
2 37190  52.0018 205.7277 0000793  93.4585 303.0712 12.62270691644153
GLOBALSTAR M077         
1 37191U 10054D   24275.84253330 -.00000061  00000+0  24097-3 0  9991
2 37191  52.0058 162.5232 0000767  74.8861   0.7368 12.62264616644529
GLOBALSTAR M075         
1 37192U 10054E   24275.65231319  .00001186  00000+0  71968-2 0  9990
2 37192  51.9935 248.7206 0000502  66.1679 104.9444 12.62280361643197
GLOBALSTAR M073         
1 37193U 10054F   24275.86970375 -.00000081  00000+0  12971-3 0  9990
2 37193  52.0049 161.6803 0000840  83.9316 355.4779 12.62270259645216
GLOBALSTAR M083         
1 37739U 11033A   24275.88907896 -.00000048  00000+0  31116-3 0  9999
2 37739  51.9835 110.7037 0000958  76.7189  31.5041 12.62265601614232
GLOBALSTAR M088         
1 37740U 11033B   24275.79849560 -.00000085  00000+0  10324-3 0  9993
2 37740  51.9759  16.6865 0000750  92.2465  85.2654 12.62267975609766
GLOBALSTAR M091         
1 37741U 11033C   24275.64976925 -.00000073  00000+0  17415-3 0  9999
2 37741  52.0017 340.2379 0000628  74.7160  84.5387 12.62267626610538
GLOBALSTAR M085         
1 37742U 11033D   24275.79712922 -.00000077  00000+0  14894-3 0  9993
2 37742  51.9862 291.0551 0000533  61.1302 109.3807 12.62266608611064
GLOBALSTAR M081         
1 37743U 11033E   24275.82356372 -.00000064  00000+0  22404-3 0  9993
2 37743  51.9953 293.6017 0000672  82.8247  87.9844 12.62270242611211
GLOBALSTAR M089         
1 37744U 11033F   24275.91054362 -.00000097  00000+0  35796-4 0  9993
2 37744  51.9918 247.6139 0000488 110.8438 273.7850 12.62269671612077
GLOBALSTAR M084         
1 38040U 11080A   24275.86139280 -.00000070  00000+0  18768-3 0  9992
2 38040  51.9984 114.9120 0000726 104.9010 357.1018 12.62268086590045
GLOBALSTAR M080         
1 38041U 11080B   24275.81541550 -.00000058  00000+0  25305-3 0  9996
2 38041  52.0040 116.5688 0001020 111.4285 261.3237 12.62266423590168
GLOBALSTAR M082         
1 38042U 11080C   24275.85837969 -.00000089  00000+0  79785-4 0  9999
2 38042  52.0073  71.8544 0000791  56.9762  91.2641 12.62267237590877
GLOBALSTAR M092         
1 38043U 11080D   24275.89626309 -.00000069  00000+0  19530-3 0  9997
2 38043  52.0074 162.1048 0000644  75.8344   4.7596 12.62266712589542
GLOBALSTAR M090         
1 38044U 11080E   24275.88720411 -.00000102  00000+0  11493-4 0  9995
2 38044  51.9884  65.9073 0000800  77.5379  81.8739 12.62268151591030
GLOBALSTAR M086         
1 38045U 11080F   24275.48710311 -.00000094  00000+0  54378-4 0  9999
2 38045  51.9897  67.6558 0001734 100.3667 280.6619 12.62267663590890
GLOBALSTAR M097         
1 39072U 13005A   24275.58847929 -.00000080  00000+0  13355-3 0  9990
2 39072  52.0069 341.6380 0000699  85.7155 274.3792 12.62270654538156
GLOBALSTAR M093         
1 39073U 13005B   24275.87837260 -.00000071  00000+0  18446-3 0  9996
2 39073  51.9830 334.4692 0000678  78.9620 281.1323 12.62264737538145
GLOBALSTAR M094         
1 39074U 13005C   24275.87842042 -.00000104  00000+0 -24682-6 0  9991
2 39074  51.9946 248.5908 0000717  61.3508 298.7431 12.62268846539751
GLOBALSTAR M096         
1 39075U 13005D   24275.73326235 -.00000074  00000+0  16370-3 0  9995
2 39075  52.0070 297.3480 0000666  65.0569 295.0367 12.62270932538655
GLOBALSTAR M078         
1 39076U 13005E   24275.54822245 -.00000171  00000+0 -37789-3 0  9993
2 39076  51.9904  22.7682 0000704   7.9787 352.1091 12.62274081537257
GLOBALSTAR M095         
1 39077U 13005F   24275.57491247 -.00000089  00000+0  81957-4 0  9995
2 39077  51.9827  20.0137 0000811  54.4500 305.6442 12.62265138537118
GLOBALSTAR M087         
1 52888U 22064A   24275.81248058 -.00000069  00000+0  11194-3 0  9995
2 52888  51.9749 196.5797 0008709 277.1098  82.8812 13.37587213111798
